STARLINK-36334          
1 67471U 26008AC  26041.16668981 -.02030795  00000+0 -53193-1 0  9998
2 67471  43.0003   1.3062 0001679 270.5316 152.7460 15.41525891  5377
STARLINK-36269          
1 67472U 26008AD  26041.16668981 -.02067976  00000+0 -43359-1 0  9993
2 67472  42.9997   1.3123 0001301 269.2684 151.0092 15.48048196  5391
STARLINK-36408          
1 67473U 26008AE  26040.97047914  .00113268  00000+0  19035-2 0  9996
2 67473  43.0004   2.5667 0001425 246.4768 113.5942 15.50655502  5324
ALSAT-3A                
1 67474U 26009A   26041.15806027  .00007410  00000+0  31304-3 0  9992
2 67474  97.4675 115.8101 0012576 165.0725 195.0885 15.23471268  3932
CZ-2C R/B               
1 67475U 26009B   26041.17632581  .00003183  00000+0  21510-3 0  9998
2 67475  97.1747 113.7482 0100422 133.3711 227.5937 15.03138097  3948
TIANQI-37               
1 67476U 26010A   26039.27753693  .00000165  00000+0  15719-3 0  9998
2 67476  44.9825 296.6529 0012909  70.2546 289.9683 14.13528441  3324
TIANQI-38               
1 67477U 26010B   26039.27310946  .00000208  00000+0  17865-3 0  9991
2 67477  44.9788 296.6199 0011754  75.6443 284.5700 14.13905796  3321
TIANQI-39               
1 67478U 26010C   26039.27859865  .00000167  00000+0  15988-3 0  9998
2 67478  44.9839 296.6613 0016488  82.3005 277.9705 14.13055169  3329
TIANQI-40               
1 67479U 26010D   26040.19213046  .00000156  00000+0  15351-3 0  9999
2 67479  44.9786 292.4342 0011741  80.4003 279.8161 14.13182235  3454
SZ-20 MODULE            
1 67481U 25082C   26040.96928673  .00024628  00000+0  27050-3 0  9993
2 67481  41.4800  16.3066 0006962 145.5631 214.5661 15.62594222273280
2025-313BE              
1 67482U 25313BE  26040.98738471  .00063906  00000+0  24995-2 0  9994
2 67482  97.4058 117.8480 0008755  85.7854 274.4385 15.25562216  3745
ION SCV-021             
1 67483U 25276DT  26034.18647169 -.00137880  00000+0 -12184-1 0  9992
2 67483  97.5347 109.4970 0011364 207.9438 152.1175 14.97059561  2554
